ONEWEB-0033             
1 45142U 20008M   25211.20597835  .00000303  00000+0  83038-3 0  9996
2 45142  87.8801 100.5099 0001815  70.7022 289.4302 13.10377370266944
ONEWEB-0035             
1 45143U 20008N   25211.16033082  .00000237  00000+0  64257-3 0  9999
2 45143  87.8794 100.5209 0001815  72.7902 287.3424 13.10369879266653
ONEWEB-0036             
1 45144U 20008P   25210.76858378  .00000588  00000+0  16480-2 0  9991
2 45144  87.8805 100.5416 0001807  86.9048 273.2286 13.10376357266149
ONEWEB-0038             
1 45145U 20008Q   25211.19650934  .00000111  00000+0  27684-3 0  9999
2 45145  87.8813  85.2366 0003531  70.3103 289.8406 13.11414798268914
ONEWEB-0039             
1 45146U 20008R   25211.43837350  .00000383  00000+0  10619-2 0  9996
2 45146  87.8804 100.4303 0002196  87.7118 272.4260 13.10383375266807
ONEWEB-0040             
1 45147U 20008S   25210.97357260  .00000151  00000+0  39709-3 0  9997
2 45147  87.8812 100.5511 0001818  77.6761 282.4570 13.10378193265661
ONEWEB-0043             
1 45149U 20008U   25210.74616126 -.00000069  00000+0 -23443-3 0  9991
2 45149  87.8806 100.5809 0001849  91.2266 268.9073 13.10375699265959
ONEWEB-0044             
1 45150U 20008V   25211.38526124  .00000466  00000+0  12975-2 0  9998
2 45150  87.8796 100.4452 0001869  86.0753 274.0588 13.10371864267105
